{
  "norad_id": 62772,
  "name": "STARLINK-33600",
  "history": [
    {
      "epoch": "2026-03-28T15:59:47.582880",
      "apogee_km": 475.65731649907775,
      "perigee_km": 474.7334872913025,
      "latitude_deg": -30.571596690916415,
      "longitude_deg": 161.1862031999044,
      "semi_major_axis_km": 6853.33240189519,
      "eccentricity": 6.74e-05,
      "inclination_deg": 53.1622,
      "raan_deg": 234.5143,
      "arg_perigee_deg": 70.099,
      "mean_anomaly_deg": 290.0083,
      "mean_motion_rev_day": 15.30206587
    },
    {
      "epoch": "2026-03-28T22:16:00.037344",
      "apogee_km": 475.6492862970672,
      "perigee_km": 474.6651532471087,
      "latitude_deg": -21.958065932376357,
      "longitude_deg": -173.73329184018075,
      "semi_major_axis_km": 6853.294219772088,
      "eccentricity": 7.18e-05,
      "inclination_deg": 53.1596,
      "raan_deg": 233.2992,
      "arg_perigee_deg": 64.1504,
      "mean_anomaly_deg": 295.9571,
      "mean_motion_rev_day": 15.30219375
    }
  ]
}